STARLINK-4034           
1 52700U 22053AW  26068.48740855  .00000200  00000+0  30641-4 0  9998
2 52700  53.2168 149.6722 0001505  83.6284 276.4879 15.08836902211069
CHUANGXIN 16A (CX-16A)  
1 53586U 22102A   26068.83297444  .00003128  00000+0  20134-3 0  9993
2 53586  28.9941 256.1289 0005063  43.7318 316.3682 15.05552649194538
